STARLINK-6129           
1 57116U 23090R   24287.68523205  .00006201  00000+0  47418-3 0  9993
2 57116  43.0004 176.8243 0001448 277.6069  82.4609 15.02496939 73397
STARLINK-6148           
1 57117U 23090S   24287.13785276 -.00002820  00000+0 -19368-3 0  9990
2 57117  43.0032 179.5965 0001365 264.2840  95.7847 15.02551056 73312
STARLINK-6151           
1 57118U 23090T   24287.67524689  .00010092  00000+0  76136-3 0  9993
2 57118  43.0013 176.7496 0001437 293.4391  66.6300 15.02520900 73398
STARLINK-6150           
1 57119U 23090U   24287.06693862 -.00003065  00000+0 -21190-3 0  9991
2 57119  43.0014 179.9244 0001294 261.6257  98.4439 15.02545299 73300
STARLINK-6147           
1 57120U 23090V   24287.67190519  .00001457  00000+0  12289-3 0  9991
2 57120  42.9986 176.7195 0001050 259.3573 100.7151 15.02538913 73395
STARLINK-6152           
1 57121U 23090W   24287.05807604 -.00000167  00000+0  26913-5 0  9993
2 57121  43.0001 179.8558 0001284 266.8899  93.1796 15.02528985 73114
STARLINK-6149           
1 57122U 23090X   24287.66192544  .00011599  00000+0  87205-3 0  9990
2 57122  43.0009 176.6485 0001322 272.2126  87.8565 15.02545944 73392
STARLINK-6154           
1 57123U 23090Y   24287.05474079  .00002954  00000+0  23364-3 0  9991
2 57123  43.0006 179.8312 0001329 222.1540 137.9200 15.02540434 73117
STARLINK-6146           
1 57124U 23090Z   24287.72617366 -.00002133  00000+0 -14284-3 0  9996
2 57124  43.0022 176.2705 0001152 266.6883  93.3827 15.02550022 73406
STARLINK-6100           
1 57125U 23090AA  24287.83842709  .00006661  00000+0  50772-3 0  9990
2 57125  43.0009 163.2324 0001020 263.4569  96.6157 15.02531120 73371
STARLINK-6167           
1 57126U 23090AB  24287.72506187  .00003554  00000+0  27798-3 0  9996
2 57126  43.0019 176.2621 0001385 263.1045  96.9640 15.02539386 73403
STARLINK-6165           
1 57127U 23090AC  24287.71505873 -.00018555  00000+0 -13611-2 0  9994
2 57127  43.0020 176.1843 0001529 285.2263  74.8410 15.02563888 73211
STARLINK-6163           
1 57128U 23090AD  24287.05696257  .00003792  00000+0  29559-3 0  9993
2 57128  43.0012 179.8462 0001419 261.4689  98.5993 15.02540851 73119
STARLINK-6170           
1 57129U 23090AE  24287.91933499  .00017528  00000+0  13089-2 0  9993
2 57129  43.0013 162.9817 0001115 285.2247  74.8472 15.02550006 73386
STARLINK-6172           
1 57130U 23090AF  24287.71618137  .00003530  00000+0  27619-3 0  9995
2 57130  43.0023 176.1947 0001357 264.5920  95.4767 15.02541454 73211
STARLINK-6162           
1 57131U 23090AG  24287.05067135  .00001292  00000+0  11073-3 0  9999
2 57131  43.0022 167.6420 0001389 254.9976 105.0713 15.02536762 73250
STARLINK-6128           
1 57132U 23090AH  24287.11122140 -.00001281  00000+0 -79738-4 0  9998
2 57132  43.0036 179.3940 0001174 261.5103  98.5606 15.02551031 73120
STARLINK-6143           
1 57133U 23090AJ  24287.03736505 -.00001286  00000+0 -80145-4 0  9995
2 57133  43.0022 167.5414 0000844 303.2473  56.8289 15.02523556 73257
STARLINK-6133           
1 57134U 23090AK  24287.71655394  .00000743  00000+0  70079-4 0  9997
2 57134  43.0028 164.0409 0001727 275.4949  84.5697 15.02544365 73352
STARLINK-6127           
1 57135U 23090AL  24287.69214442  .00003124  00000+0  24627-3 0  9993
2 57135  43.0035 163.8551 0001074 270.1009  89.9710 15.02533224 73357
STARLINK-6112           
1 57136U 23090AM  24287.71323480  .00013577  00000+0  10178-2 0  9998
2 57136  43.0012 164.0130 0001240 273.3650  86.7051 15.02551225 73377
STARLINK-5347           
1 57137U 23090AN  24287.76638372  .00006509  00000+0  49661-3 0  9990
2 57137  43.0023 163.5530 0001102 251.3975 108.6747 15.02522322 73362
STARLINK-5336           
1 57138U 23090AP  24287.04733584 -.00004039  00000+0 -28418-3 0  9998
2 57138  43.0018 167.6126 0000899 257.2081 102.8661 15.02530101 73251
STARLINK-5355           
1 57139U 23090AQ  24287.03067901 -.00008378  00000+0 -60551-3 0  9995
2 57139  43.0013 167.4901 0001474 265.4417  94.6257 15.02557978 73250
STARLINK-5357           
1 57141U 23090AS  24287.02515232 -.00001410  00000+0 -89382-4 0  9996
2 57141  43.0030 167.4490 0001113 264.0327  96.0389 15.02523336 72308
STARLINK-5361           
1 57142U 23090AT  24287.02070047  .00000952  00000+0  85544-4 0  9991
2 57142  43.0022 167.4137 0001161 284.1187  75.9526 15.02537171 72309
STARLINK-5358           
1 57143U 23090AU  24287.08385810  .00003106  00000+0  24491-3 0  9992
2 57143  43.0011 167.0304 0001487 287.7630  72.3050 15.02534758 73260
STARLINK-5150           
1 57144U 23090AV  24287.69325344  .00007663  00000+0  58161-3 0  9999
2 57144  43.0013 163.8594 0001327 260.0556 100.0137 15.02542612 73355
STARLINK-5768           
1 57145U 23090AW  24287.93921903 -.00000139  00000+0  47691-5 0  9990
2 57145  42.9976 162.2588 0002004 275.9663  84.0951 15.02501064 73390
STARLINK-5791           
1 57146U 23090AX  24287.01516394  .00007472  00000+0  56763-3 0  9998
2 57146  42.9965 167.3708 0000564 285.3653  74.7127 15.02531285 72301
STARLINK-5765           
1 57147U 23090AY  24287.93473795 -.00006276  00000+0 -44991-3 0  9990
2 57147  43.0017 162.2303 0001907 257.6807 102.3822 15.02534730 73581
STARLINK-5788           
1 57148U 23090AZ  24287.92808323  .00004760  00000+0  36712-3 0  9995
2 57148  43.0002 162.1794 0001206 275.0175  85.0529 15.02541754 73397
STARLINK-5778           
1 57149U 23090BA  24287.88208443 -.00009401  00000+0 -68118-3 0  9992
2 57149  43.0017 136.6525 0001072 286.2308  73.8416 15.02571086 73879
STARLINK-5780           
1 57150U 23090BB  24287.07830110 -.00003343  00000+0 -23252-3 0  9996
2 57150  43.0009 166.9843 0001183 242.5009 117.5713 15.02535894 73454
STARLINK-5776           
1 57151U 23090BC  24287.07718411 -.00003368  00000+0 -23435-3 0  9996
2 57151  43.0013 166.9763 0001588 265.9034  94.1627 15.02533050 73453
STARLINK-6164           
1 57152U 23090BD  24287.01404848 -.00003221  00000+0 -22354-3 0  9994
2 57152  43.0016 167.3659 0001059 290.4703  69.6026 15.02530764 73443
STARLINK-5879           
1 57153U 23090BE  24287.90182806  .00001449  00000+0  12243-3 0  9994
2 57153  43.0098 149.8267 0003418 275.0738  84.9715 15.02516687 72589
STARLINK-6106           
1 57154U 23090BF  24287.93584011 -.00002704  00000+0 -18508-3 0  9999
2 57154  43.0031 162.2391 0001053 264.0728  95.9995 15.02558735 73587
STARLINK-6108           
1 57155U 23090BG  24287.92142278  .00004741  00000+0  36573-3 0  9997
2 57155  43.0034 162.1317 0001544 277.1151  82.9516 15.02541308 73581
STARLINK-6137           
1 57156U 23090BH  24287.92475042  .00003688  00000+0  28794-3 0  9991
2 57156  43.0049 162.1515 0001595 230.4651 129.6050 15.02535879 73589
STARLINK-5525           
1 57218U 23094A   24287.73262667  .00002065  00000+0  16786-3 0  9996
2 57218  43.0034 292.5692 0001154 269.6043  90.4667 15.02536416 70108
STARLINK-5520           
1 57219U 23094B   24287.72929348  .00008282  00000+0  62729-3 0  9997
2 57219  43.0033 292.5440 0001253 276.1476  83.9223 15.02544086 70109
STARLINK-5880           
1 57220U 23094C   24287.71376661  .00011982  00000+0  90059-3 0  9990
2 57220  43.0032 292.4260 0001374 251.0874 108.9819 15.02533219 70102
STARLINK-5875           
1 57221U 23094D   24287.72709077 -.00000200  00000+0  23643-6 0  9993
2 57221  43.0035 292.5275 0001137 264.8955  95.1757 15.02521043 70102
STARLINK-5870           
1 57222U 23094E   24287.72038524 -.00031010  00000+0 -22874-2 0  9991
2 57222  43.0039 292.4760 0002232 249.4535 110.6068 15.02587660 70739
STARLINK-5519           
1 57223U 23094F   24287.72374917  .00003018  00000+0  23848-3 0  9999
2 57223  43.0044 292.5008 0001201 265.5881  94.4824 15.02526281 70102
STARLINK-5983           
1 57224U 23094G   24287.71710518  .00011314  00000+0  85164-3 0  9997
2 57224  43.0037 292.4523 0001299 290.3585  69.7117 15.02517762 70104
STARLINK-6294           
1 57225U 23094H   24287.72596927  .00001382  00000+0  11737-3 0  9994
2 57225  43.0047 292.5124 0001291 260.5838  99.4859 15.02535694 70103
STARLINK-6350           
1 57226U 23094J   24287.70599671 -.00003725  00000+0 -26087-3 0  9991
2 57226  43.0039 292.3653 0001484 253.0059 107.0620 15.02526548 70106
STARLINK-5996           
1 57227U 23094K   24287.71044689  .00011515  00000+0  86650-3 0  9993
2 57227  43.0022 292.3990 0001180 282.3445  77.7266 15.02518951 70108
STARLINK-6230           
1 57228U 23094L   24287.70265814  .00002531  00000+0  20244-3 0  9993
2 57228  43.0045 292.3399 0001190 259.8477 100.2231 15.02527316 70101
STARLINK-6233           
1 57229U 23094M   24287.70933003  .00011955  00000+0  89884-3 0  9991
2 57229  43.0025 292.3905 0001518 240.2640 119.8051 15.02524833 70100
STARLINK-6250           
1 57230U 23094N   24287.36471489 -.00000523  00000+0 -23659-4 0  9990
2 57230  43.0037 294.1036 0001148 274.9378  85.1333 15.02542313 70236
STARLINK-5840           
1 57231U 23094P   24287.74027475 -.00002942  00000+0 -20273-3 0  9990
2 57231  43.0041 291.7615 0001402 283.6538  76.4148 15.02552802 70114
STARLINK-5872           
1 57232U 23094Q   24287.73916079  .00001694  00000+0  14047-3 0  9990
2 57232  43.0031 291.7489 0001068 281.9821  78.0902 15.02537760 70771
STARLINK-5866           
1 57233U 23094R   24287.74695035  .00003803  00000+0  29656-3 0  9994
2 57233  43.0032 291.8120 0001107 273.6631  86.4085 15.02523601 70119
STARLINK-6368           
1 57234U 23094S   24287.73694801  .00000281  00000+0  35843-4 0  9997
2 57234  43.0034 291.7366 0001294 272.5061  87.5633 15.02543949 70113
STARLINK-6360           
1 57235U 23094T   24287.74916644  .00012489  00000+0  93806-3 0  9996
2 57235  43.0031 291.8280 0001692 248.6737 111.3925 15.02531645 70113
STARLINK-6315           
1 57236U 23094U   24287.67750974 -.00001201  00000+0 -73827-4 0  9995
2 57236  43.0047 280.0114 0001587 259.9698 100.0965 15.02535716 70247
